[{"OBJECT_NAME":"YAOGAN-30 02C","OBJECT_ID":"2017-058C","EPOCH":"2026-03-09T23:23:41.320320","MEAN_MOTION":15.0385567,"ECCENTRICITY":0.00042194,"INCLINATION":34.9965,"RA_OF_ASC_NODE":266.8068,"ARG_OF_PERICENTER":49.9722,"MEAN_ANOMALY":310.1357,"EPHEMERIS_TYPE":0,"CLASSIFICATION_TYPE":"U","NORAD_CAT_ID":42947,"ELEMENT_SET_NO":999,"REV_AT_EPOCH":46087,"BSTAR":0.00031396475,"MEAN_MOTION_DOT":4.384e-5,"MEAN_MOTION_DDOT":0},{"OBJECT_NAME":"STARLINK-35181","OBJECT_ID":"2025-211Q","EPOCH":"2026-03-09T16:28:13.238976","MEAN_MOTION":15.0565216,"ECCENTRICITY":9.335e-5,"INCLINATION":97.6025,"RA_OF_ASC_NODE":114.0977,"ARG_OF_PERICENTER":139.3212,"MEAN_ANOMALY":220.8085,"EPHEMERIS_TYPE":0,"CLASSIFICATION_TYPE":"U","NORAD_CAT_ID":65666,"ELEMENT_SET_NO":999,"REV_AT_EPOCH":2704,"BSTAR":0.00022959952,"MEAN_MOTION_DOT":3.254e-5,"MEAN_MOTION_DDOT":0}]
